NORAD_CAT_ID,OBJECT_NAME,OBJECT_TYPE,EPOCH,MEAN_MOTION,ECCENTRICITY,INCLINATION,RA_OF_ASC_NODE,ARG_OF_PERICENTER,MEAN_ANOMALY,BSTAR,MEAN_MOTION_DOT,MEAN_MOTION_DDOT,TLE_LINE0,TLE_LINE1,TLE_LINE2,SEMIMAJOR_AXIS,PERIOD,APOGEE,PERIGEE,DECAYED
50158.0,STARLINK-3309,PAYLOAD,2023-10-22 00:47:45,15.08868338,0.0001221,53.2159,203.1722,88.2983,271.8149,0.00046798,7.174e-05,0.0,0 STARLINK-3309,1 50158U 21125C   23295.03317001  .00007174  00000-0  46798-3 0  9992,2 50158  53.2159 203.1722 0001221  88.2983 271.8149 15.08868338102080,6917.794,95.436,540.503,538.814,0.0
50158.0,STARLINK-3309,PAYLOAD,2023-10-22 18:17:02,15.08832352,0.0001393,53.2155,199.9021,79.586,280.5289,-9.0836e-05,-1.733e-05,0.0,0 STARLINK-3309,1 50158U 21125C   23295.76182872 -.00001733  00000-0 -90836-4 0  9998,2 50158  53.2155 199.9021 0001393  79.5860 280.5289 15.08832352102198,6917.904,95.438,540.732,538.805,0.0
50158.0,STARLINK-3309,PAYLOAD,2023-10-22 21:27:48,15.08828184,0.0001158,53.2158,199.3067,101.8531,258.2591,-0.00016307,-2.881e-05,0.0,0 STARLINK-3309,1 50158U 21125C   23295.89431034 -.00002881  00000-0 -16307-3 0  9994,2 50158  53.2158 199.3067 0001158 101.8531 258.2591 15.08828184105366,6917.917,95.438,540.583,538.98,0.0
50158.0,STARLINK-3309,PAYLOAD,2023-10-23 21:18:35,15.08833181,0.000122,53.2154,194.8418,99.394,260.719,0.00037025,5.608e-05,0.0,0 STARLINK-3309,1 50158U 21125C   23296.88791561  .00005608  00000-0  37025-3 0  9996,2 50158  53.2154 194.8418 0001220  99.3940 260.7190 15.08833181105510,6917.901,95.438,540.61,538.922,0.0
50158.0,STARLINK-3309,PAYLOAD,2023-10-24 03:40:08,15.08843611,0.0001309,53.2158,193.6548,107.4695,252.6441,0.00063656,9.858e-05,0.0,0 STARLINK-3309,1 50158U 21125C   23297.15287419  .00009858  00000-0  63656-3 0  9999,2 50158  53.2158 193.6548 0001309 107.4695 252.6441 15.08843611102404,6917.869,95.437,540.64,538.829,0.0
50158.0,STARLINK-3309,PAYLOAD,2023-10-24 10:01:40,15.08845588,0.0001266,53.2153,192.4651,105.8916,254.2216,0.00055352,8.534e-05,0.0,0 STARLINK-3309,1 50158U 21125C   23297.41783407  .00008534  00000-0  55352-3 0  9990,2 50158  53.2153 192.4651 0001266 105.8916 254.2216 15.08845588105597,6917.863,95.437,540.604,538.853,0.0
50158.0,STARLINK-3309,PAYLOAD,2023-10-25 03:30:55,15.08846996,0.0001362,53.2157,189.1947,102.4664,257.6481,0.00033868,5.107e-05,0.0,0 STARLINK-3309,1 50158U 21125C   23298.14647285  .00005107  00000-0  33868-3 0  9995,2 50158  53.2157 189.1947 0001362 102.4664 257.6481 15.08846996102550,6917.859,95.437,540.666,538.782,0.0
50158.0,STARLINK-3309,PAYLOAD,2023-10-25 22:35:32,15.08844064,0.0001516,53.2166,185.625,95.563,264.5535,0.00010854,1.44e-05,0.0,0 STARLINK-3309,1 50158U 21125C   23298.94135298  .00001440  00000-0  10854-3 0  9995,2 50158  53.2166 185.6250 0001516  95.5630 264.5535 15.08844064105828,6917.868,95.437,540.782,538.684,0.0
50158.0,STARLINK-3309,PAYLOAD,2023-10-26 01:46:19,15.088456,0.0001446,53.2168,185.0299,90.6494,269.4663,0.0002151,3.138e-05,0.0,0 STARLINK-3309,1 50158U 21125C   23299.07383298  .00003138  00000-0  21510-3 0  9992,2 50158  53.2168 185.0299 0001446  90.6494 269.4663 15.08845600102698,6917.863,95.437,540.729,538.728,0.0
50158.0,STARLINK-3309,PAYLOAD,2023-10-26 03:21:42,15.08849084,0.0001336,53.2157,184.7335,98.8602,261.2541,0.0001287,1.761e-05,0.0,0 STARLINK-3309,1 50158U 21125C   23299.14007008  .00001761  00000-0  12870-3 0  9991,2 50158  53.2157 184.7335 0001336  98.8602 261.2541 15.08849084105858,6917.853,95.437,540.642,538.793,0.0
50158.0,STARLINK-3309,PAYLOAD,2023-10-26 20:50:56,15.08848737,0.000133,53.2167,181.4615,97.6524,262.4619,0.00017912,2.565e-05,0.0,0 STARLINK-3309,1 50158U 21125C   23299.86870841  .00002565  00000-0  17912-3 0  9998,2 50158  53.2167 181.4615 0001330  97.6524 262.4619 15.08848737105963,6917.854,95.437,540.639,538.799,0.0
50158.0,STARLINK-3309,PAYLOAD,2023-10-27 09:34:01,15.08843603,0.0001334,53.2156,179.0827,95.4354,264.679,7.698e-05,9.38e-06,0.0,0 STARLINK-3309,1 50158U 21125C   23300.39862751  .00000938  00000-0  76980-4 0  9993,2 50158  53.2156 179.0827 0001334  95.4354 264.6790 15.08843603102890,6917.869,95.437,540.657,538.812,0.0
50158.0,STARLINK-3309,PAYLOAD,2023-10-27 22:17:06,15.08837823,0.0001384,53.2161,176.7017,102.4863,257.6284,0.0001478,2.065e-05,0.0,0 STARLINK-3309,1 50158U 21125C   23300.92855066  .00002065  00000-0  14780-3 0  9995,2 50158  53.2161 176.7017 0001384 102.4863 257.6284 15.08837823106127,6917.887,95.438,540.709,538.795,0.0
50158.0,STARLINK-3309,PAYLOAD,2023-10-28 01:27:53,15.08841491,0.000142,53.2157,176.1094,96.9597,263.1557,6.5387e-05,7.53e-06,0.0,0 STARLINK-3309,1 50158U 21125C   23301.06103016  .00000753  00000-0  65387-4 0  9994,2 50158  53.2157 176.1094 0001420  96.9597 263.1557 15.08841491106146,6917.876,95.437,540.723,538.758,0.0
50158.0,STARLINK-3309,PAYLOAD,2023-10-28 22:07:53,15.08844612,0.0001251,53.2156,172.2441,95.2199,264.8936,0.000147,2.053e-05,0.0,0 STARLINK-3309,1 50158U 21125C   23301.92215161  .00002053  00000-0  14700-3 0  9991,2 50158  53.2156 172.2441 0001251  95.2199 264.8936 15.08844612106271,6917.866,95.437,540.597,538.866,0.0
50158.0,STARLINK-3309,PAYLOAD,2023-10-29 18:47:55,15.08839348,0.0001418,53.216,168.3785,89.7448,270.3707,0.00018566,2.668e-05,0.0,0 STARLINK-3309,1 50158U 21125C   23302.78327722  .00002668  00000-0  18566-3 0  9999,2 50158  53.2160 168.3785 0001418  89.7448 270.3707 15.08839348103256,6917.882,95.438,540.728,538.766,0.0
50158.0,STARLINK-3309,PAYLOAD,2023-10-29 21:58:41,15.08842376,0.0001428,53.215,167.7817,91.7386,268.377,0.00023121,3.394e-05,0.0,0 STARLINK-3309,1 50158U 21125C   23302.91575545  .00003394  00000-0  23121-3 0  9992,2 50158  53.2150 167.7817 0001428  91.7386 268.3770 15.08842376106423,6917.873,95.437,540.726,538.75,0.0
50158.0,STARLINK-3309,PAYLOAD,2023-10-30 20:14:05,15.0883964,0.0001405,53.2148,163.6208,94.196,265.9193,4.3497e-05,4.04e-06,0.0,0 STARLINK-3309,1 50158U 21125C   23303.84311848  .00000404  00000-0  43497-4 0  9997,2 50158  53.2148 163.6208 0001405  94.1960 265.9193 15.08839640103417,6917.881,95.438,540.718,538.775,0.0
50158.0,STARLINK-3309,PAYLOAD,2023-10-30 21:49:28,15.08840131,0.0001379,53.2144,163.3252,95.436,264.679,5.2583e-05,5.49e-06,0.0,0 STARLINK-3309,1 50158U 21125C   23303.90935811  .00000549  00000-0  52583-4 0  9992,2 50158  53.2144 163.3252 0001379  95.4360 264.6790 15.08840131106573,6917.88,95.438,540.699,538.791,0.0
50158.0,STARLINK-3309,PAYLOAD,2023-10-31 07:21:47,15.08840521,0.0001396,53.2144,161.541,95.2068,264.9083,3.2203e-05,2.25e-06,0.0,0 STARLINK-3309,1 50158U 21125C   23304.30679785  .00000225  00000-0  32203-4 0  9990,2 50158  53.2144 161.5410 0001396  95.2068 264.9083 15.08840521106639,6917.879,95.438,540.71,538.778,0.0
50158.0,STARLINK-3309,PAYLOAD,2023-10-31 21:40:15,15.0884465,0.0001403,53.2145,158.8647,97.115,263.0002,0.0001532,2.151e-05,0.0,0 STARLINK-3309,1 50158U 21125C   23304.90295587  .00002151  00000-0  15320-3 0  9990,2 50158  53.2145 158.8647 0001403  97.1150 263.0002 15.08844650106721,6917.866,95.437,540.702,538.761,0.0
50158.0,STARLINK-3309,PAYLOAD,2023-11-01 00:51:01,15.08848561,0.0001429,53.2146,158.2692,95.3657,264.7498,0.00019603,2.834e-05,0.0,0 STARLINK-3309,1 50158U 21125C   23305.03543348  .00002834  00000-0  19603-3 0  9992,2 50158  53.2146 158.2692 0001429  95.3657 264.7498 15.08848561103590,6917.854,95.437,540.708,538.731,0.0
50158.0,STARLINK-3309,PAYLOAD,2023-11-01 07:12:34,15.08844324,0.0001382,53.2144,157.0788,92.4521,267.663,0.00010405,1.369e-05,0.0,0 STARLINK-3309,1 50158U 21125C   23305.30039458  .00001369  00000-0  10405-3 0  9997,2 50158  53.2144 157.0788 0001382  92.4521 267.6630 15.08844324106784,6917.867,95.437,540.688,538.776,0.0
50158.0,STARLINK-3309,PAYLOAD,2023-11-01 19:55:39,15.08837333,0.0001366,53.2163,154.7,87.6063,272.5085,6.964e-05,8.21e-06,0.0,0 STARLINK-3309,1 50158U 21125C   23305.83032179  .00000821  00000-0  69640-4 0  9996,2 50158  53.2163 154.7000 0001366  87.6063 272.5085 15.08837333103716,6917.889,95.438,540.699,538.809,0.0
50158.0,STARLINK-3309,PAYLOAD,2023-11-01 21:31:02,15.08839284,0.0001375,53.2162,154.4027,87.2275,272.8874,8.126e-05,1.006e-05,0.0,0 STARLINK-3309,1 50158U 21125C   23305.89656006  .00001006  00000-0  81260-4 0  9991,2 50158  53.2162 154.4027 0001375  87.2275 272.8874 15.08839284106878,6917.883,95.438,540.699,538.796,0.0
50158.0,STARLINK-3309,PAYLOAD,2023-11-02 07:03:21,15.08839541,0.0001488,53.2153,152.6183,87.497,272.6193,5.6659e-05,6.14e-06,0.0,0 STARLINK-3309,1 50158U 21125C   23306.29400088  .00000614  00000-0  56659-4 0  9991,2 50158  53.2153 152.6183 0001488  87.4970 272.6193 15.08839541106935,6917.882,95.438,540.776,538.717,0.0
50158.0,STARLINK-3309,PAYLOAD,2023-11-02 21:21:48,15.0887175,0.0001736,53.2159,149.9422,107.1346,252.9837,-0.0003394,-5.69e-05,0.0,0 STARLINK-3309,1 50158U 21125C   23306.89014869 -.00005690  00000-0 -33940-3 0  9993,2 50158  53.2159 149.9422 0001736 107.1346 252.9837 15.08871750107024,6917.783,95.436,540.849,538.447,0.0
50158.0,STARLINK-3309,PAYLOAD,2023-11-03 03:43:22,15.08836363,0.0001406,53.2159,148.7526,84.6017,275.5136,-5.4866e-05,-1.161e-05,0.0,0 STARLINK-3309,1 50158U 21125C   23307.15512397 -.00001161  00000-0 -54866-4 0  9992,2 50158  53.2159 148.7526 0001406  84.6017 275.5136 15.08836363103912,6917.892,95.438,540.729,538.784,0.0
50158.0,STARLINK-3309,PAYLOAD,2023-11-03 13:15:41,15.08836018,0.0001304,53.2153,146.9699,85.2366,274.8775,2.8108e-05,1.59e-06,0.0,0 STARLINK-3309,1 50158U 21125C   23307.55256253  .00000159  00000-0  28108-4 0  9996,2 50158  53.2153 146.9699 0001304  85.2366 274.8775 15.08836018107123,6917.893,95.438,540.66,538.855,0.0
50158.0,STARLINK-3309,PAYLOAD,2023-11-03 19:37:13,15.08842803,0.0001362,53.2159,145.7791,87.7958,272.319,9.2289e-05,1.181e-05,0.0,0 STARLINK-3309,1 50158U 21125C   23307.81751905  .00001181  00000-0  92289-4 0  9996,2 50158  53.2159 145.7791 0001362  87.7958 272.3190 15.08842803104015,6917.872,95.437,540.679,538.795,0.0
